{"type":"FeatureCollection","features":[
{"type":"Feature","properties":{"name":"Obilicevo"},"geometry":{"type":"Polygon","coordinates":[[[17.19532,44.765384],[17.19326,44.765536],[17.191114,44.765658],[17.189312,44.764988],[17.187724,44.7645],[17.18575,44.763159],[17.184291,44.761788],[17.183347,44.760112],[17.181673,44.757918],[17.180214,44.755663],[17.176309,44.752615],[17.175837,44.751823],[17.173905,44.749354],[17.166953,44.747983],[17.166696,44.741216],[17.170687,44.734418],[17.174935,44.732254],[17.182961,44.731461],[17.195148,44.73265],[17.196221,44.754535],[17.197638,44.757888],[17.197809,44.759655],[17.196736,44.763281],[17.19532,44.765384]]]}}
,{"type":"Feature","properties":{"name":"Kocicev Vijenac"},"geometry":{"type":"Polygon","coordinates":[[[17.176051,44.752311],[17.18605,44.764043],[17.178025,44.766603],[17.171631,44.765049],[17.163992,44.767303],[17.157254,44.767547],[17.148113,44.773823],[17.146869,44.773397],[17.142191,44.774798],[17.138672,44.773549],[17.138715,44.771508],[17.14571,44.767608],[17.156653,44.758101],[17.160816,44.760265],[17.172318,44.755846],[17.170644,44.75353],[17.171373,44.751335],[17.176051,44.752311]]]}}
,{"type":"Feature","properties":{"name":"Pobrdje"},"geometry":{"type":"Polygon","coordinates":[[[17.164207,44.767334],[17.17176,44.76511],[17.178411,44.76642],[17.180557,44.767791],[17.18133,44.770685],[17.179399,44.770533],[17.177811,44.772818],[17.174292,44.773062],[17.170129,44.770167],[17.167854,44.77035],[17.167211,44.769375],[17.16588,44.76968],[17.164207,44.767334]]]}}
,{"type":"Feature","properties":{"name":"Bulevar"},"geometry":{"type":"Polygon","coordinates":[[[17.194376,44.766115],[17.191887,44.768248],[17.188067,44.770167],[17.181802,44.771812],[17.178583,44.773671],[17.177768,44.772726],[17.179377,44.770502],[17.181351,44.7707],[17.180665,44.767699],[17.17854,44.766526],[17.186115,44.764013],[17.190063,44.765826],[17.193646,44.765643],[17.194376,44.766115]]]}}
,{"type":"Feature","properties":{"name":"Centar 1"},"geometry":{"type":"Polygon","coordinates":[[[17.19444,44.766054],[17.199333,44.767425],[17.198946,44.768598],[17.199354,44.77067],[17.199805,44.773945],[17.199891,44.774539],[17.203066,44.778271],[17.202873,44.778423],[17.197616,44.778408],[17.188776,44.769863],[17.192037,44.768263],[17.19444,44.766054]]]}}
,{"type":"Feature","properties":{"name":"Borik 2"},"geometry":{"type":"Polygon","coordinates":[[[17.203045,44.778378],[17.200084,44.774433],[17.199697,44.771157],[17.215898,44.773534],[17.215641,44.775651],[17.216477,44.778545],[17.212422,44.782124],[17.205963,44.783769],[17.205813,44.781835],[17.203839,44.780205],[17.203045,44.778378]]]}}
,{"type":"Feature","properties":{"name":"Starcevica"},"geometry":{"type":"Polygon","coordinates":[[[17.196007,44.734479],[17.203817,44.729113],[17.208195,44.730699],[17.209139,44.73704],[17.20665,44.739601],[17.211971,44.744904],[17.212915,44.75033],[17.217293,44.751975],[17.216177,44.755023],[17.219439,44.755998],[17.223558,44.758802],[17.215061,44.765688],[17.210512,44.766968],[17.20562,44.767638],[17.195749,44.765262],[17.198238,44.75996],[17.196693,44.754048],[17.196007,44.734479]]]}}
,{"type":"Feature","properties":{"name":"Ada"},"geometry":{"type":"Polygon","coordinates":[[[17.216949,44.777753],[17.216091,44.776687],[17.215855,44.774844],[17.216563,44.772864],[17.216949,44.770396],[17.216949,44.768385],[17.217529,44.76706],[17.211134,44.766953],[17.215233,44.765765],[17.220726,44.761392],[17.22358,44.759046],[17.219803,44.755694],[17.216563,44.75484],[17.217314,44.751732],[17.213066,44.749949],[17.212207,44.744645],[17.207165,44.739616],[17.209461,44.736964],[17.213602,44.73765],[17.217937,44.739951],[17.218215,44.741414],[17.219675,44.741079],[17.221048,44.7421],[17.22461,44.742222],[17.226048,44.741673],[17.227764,44.742009],[17.227764,44.743396],[17.229652,44.743518],[17.229824,44.744447],[17.228172,44.74687],[17.227979,44.748272],[17.231412,44.752189],[17.233322,44.75228],[17.234201,44.75676],[17.244244,44.759289],[17.241261,44.764378],[17.235832,44.77003],[17.235017,44.773519],[17.225597,44.776123],[17.224245,44.776626],[17.221842,44.776413],[17.219975,44.780023],[17.216949,44.777753]]]}}
,{"type":"Feature","properties":{"name":"Paprikovac"},"geometry":{"type":"Polygon","coordinates":[[[17.178626,44.77358],[17.181373,44.772224],[17.181373,44.773747],[17.18236,44.775773],[17.192681,44.783983],[17.187939,44.786069],[17.187638,44.78648],[17.185771,44.787226],[17.180085,44.788064],[17.177317,44.788155],[17.173669,44.787303],[17.172489,44.787333],[17.171609,44.787044],[17.174227,44.784774],[17.175493,44.783647],[17.178175,44.779687],[17.178218,44.777388],[17.178433,44.774813],[17.178025,44.773305],[17.178626,44.77358]]]}}
,{"type":"Feature","properties":{"name":"Laus 1"},"geometry":{"type":"Polygon","coordinates":[[[17.177639,44.773366],[17.171803,44.775651],[17.168412,44.779154],[17.165322,44.781439],[17.162704,44.783937],[17.159271,44.787013],[17.155795,44.791734],[17.151418,44.793379],[17.149744,44.792191],[17.150431,44.788506],[17.151332,44.786587],[17.149916,44.784576],[17.148371,44.783419],[17.147083,44.781622],[17.147813,44.778697],[17.146611,44.776748],[17.14674,44.773732],[17.148285,44.774189],[17.157469,44.76773],[17.164035,44.767334],[17.165709,44.769832],[17.167211,44.76968],[17.167811,44.770685],[17.170215,44.770472],[17.174249,44.773427],[17.177596,44.773001],[17.177639,44.773366]]]}}
,{"type":"Feature","properties":{"name":"Laus 2"},"geometry":{"type":"Polygon","coordinates":[[[17.177854,44.773305],[17.178197,44.779429],[17.171845,44.786891],[17.165022,44.791947],[17.160344,44.795297],[17.15498,44.797855],[17.151461,44.793561],[17.155838,44.791886],[17.159357,44.786952],[17.168713,44.77885],[17.171674,44.775651],[17.177854,44.773305]]]}}
,{"type":"Feature","properties":{"name":"Petricevac"},"geometry":{"type":"Polygon","coordinates":[[[17.193003,44.783998],[17.198067,44.787409],[17.199354,44.791704],[17.197165,44.792008],[17.195063,44.795693],[17.183304,44.79749],[17.174635,44.798982],[17.171459,44.799743],[17.166996,44.807082],[17.161846,44.80903],[17.158842,44.803276],[17.155151,44.802606],[17.154508,44.801266],[17.152705,44.799073],[17.160859,44.795054],[17.17176,44.786952],[17.173905,44.78747],[17.17721,44.788232],[17.180171,44.788292],[17.185879,44.787561],[17.187595,44.786556],[17.193003,44.783998]]]}}
,{"type":"Feature","properties":{"name":"Borik 1"},"geometry":{"type":"Polygon","coordinates":[[[17.199612,44.770746],[17.199225,44.768339],[17.19974,44.767212],[17.207465,44.768339],[17.216778,44.767273],[17.216306,44.773336],[17.199612,44.770746]]]}}
,{"type":"Feature","properties":{"name":"Nova Varos"},"geometry":{"type":"Polygon","coordinates":[[[17.185621,44.777631],[17.193432,44.774707],[17.198839,44.780738],[17.193346,44.783541],[17.185621,44.777631]]]}}
,{"type":"Feature","properties":{"name":"Centar 2"},"geometry":{"type":"Polygon","coordinates":[[[17.18545,44.777022],[17.182617,44.775133],[17.181845,44.772087],[17.188711,44.769893],[17.193346,44.774509],[17.18545,44.777022]]]}}
,{"type":"Feature","properties":{"name":"Rosulje"},"geometry":{"type":"Polygon","coordinates":[[[17.193518,44.783724],[17.199612,44.780556],[17.197981,44.778789],[17.203131,44.778789],[17.206221,44.783967],[17.205706,44.788597],[17.202444,44.790303],[17.204247,44.795175],[17.202702,44.795054],[17.199955,44.794505],[17.198496,44.798099],[17.194118,44.799195],[17.188196,44.801144],[17.182102,44.80492],[17.176523,44.805955],[17.165108,44.816428],[17.161245,44.816733],[17.162361,44.81582],[17.16073,44.81381],[17.162361,44.812227],[17.161589,44.809],[17.166996,44.807112],[17.171459,44.799804],[17.195063,44.795876],[17.19708,44.792221],[17.19944,44.791551],[17.198238,44.787501],[17.193518,44.783724]]]}}
,{"type":"Feature","properties":{"name":"Drakulic"},"geometry":{"type":"Polygon","coordinates":[[[17.166395,44.815637],[17.176695,44.805894],[17.182531,44.804859],[17.188625,44.800901],[17.19841,44.798221],[17.198925,44.801753],[17.198582,44.805285],[17.19841,44.808817],[17.199869,44.814054],[17.187166,44.819655],[17.174721,44.816611],[17.172318,44.814906],[17.166395,44.815637]]]}}
,{"type":"Feature","properties":{"name":"Lazarevo 2"},"geometry":{"type":"Polygon","coordinates":[[[17.205963,44.788475],[17.208796,44.804555],[17.216177,44.821299],[17.216864,44.825074],[17.210855,44.823552],[17.205791,44.823308],[17.200298,44.814054],[17.198324,44.80833],[17.199054,44.801753],[17.198367,44.798434],[17.199826,44.794536],[17.204247,44.795358],[17.202272,44.790364],[17.205963,44.788475]]]}}
,{"type":"Feature","properties":{"name":"Lazarevo 1"},"geometry":{"type":"Polygon","coordinates":[[[17.216434,44.820629],[17.20871,44.804555],[17.205706,44.788902],[17.206221,44.783845],[17.213001,44.781835],[17.216778,44.777875],[17.219954,44.779825],[17.221842,44.781896],[17.226906,44.783358],[17.22785,44.785734],[17.226992,44.787988],[17.222872,44.789572],[17.218666,44.789998],[17.217207,44.790485],[17.218752,44.792435],[17.221842,44.794262],[17.227421,44.79347],[17.230167,44.795602],[17.228537,44.799073],[17.231541,44.800352],[17.251711,44.800961],[17.251539,44.802545],[17.24081,44.808087],[17.236691,44.808391],[17.238235,44.811436],[17.235832,44.814297],[17.235403,44.818864],[17.223129,44.821299],[17.216434,44.820629]]]}}
]}
